NORAD_CAT_ID,OBJECT_NAME,OBJECT_TYPE,EPOCH,MEAN_MOTION,ECCENTRICITY,INCLINATION,RA_OF_ASC_NODE,ARG_OF_PERICENTER,MEAN_ANOMALY,BSTAR,MEAN_MOTION_DOT,MEAN_MOTION_DDOT,TLE_LINE0,TLE_LINE1,TLE_LINE2,SEMIMAJOR_AXIS,PERIOD,APOGEE,PERIGEE,DECAYED
53722.0,STARLINK-4700,PAYLOAD,2023-05-23 07:49:56,15.08838672,0.0001187,53.2162,159.11,91.047,269.0659,5.6473e-06,-1.98e-06,0.0,0 STARLINK-4700,1 53722U 22107Y   23143.32634778 -.00000198  00000-0  56473-5 0  9993,2 53722  53.2162 159.1100 0001187  91.0470 269.0659 15.08838672 39765,6917.884,95.438,540.571,538.928,0.0
53722.0,STARLINK-4700,PAYLOAD,2023-05-24 06:05:20,15.08833928,0.0001104,53.2161,154.9449,91.0028,269.109,9.2395e-05,1.183e-05,0.0,0 STARLINK-4700,1 53722U 22107Y   23144.25371002  .00001183  00000-0  92395-4 0  9990,2 53722  53.2161 154.9449 0001104  91.0028 269.1090 15.08833928 40357,6917.899,95.438,540.528,539.0,0.0
53722.0,STARLINK-4700,PAYLOAD,2023-05-26 04:11:30,15.08846614,0.0001064,53.2163,146.3237,91.8582,268.2532,9.9153e-05,1.291e-05,0.0,0 STARLINK-4700,1 53722U 22107Y   23146.17466395  .00001291  00000-0  99153-4 0  9992,2 53722  53.2163 146.3237 0001064  91.8582 268.2532 15.08846614 40196,6917.86,95.437,540.461,538.989,0.0
53722.0,STARLINK-4700,PAYLOAD,2023-05-26 08:57:39,15.08852289,0.0001111,53.2158,145.4307,96.8343,263.2776,0.00014527,2.026e-05,0.0,0 STARLINK-4700,1 53722U 22107Y   23146.37337791  .00002026  00000-0  14527-3 0  9999,2 53722  53.2158 145.4307 0001111  96.8343 263.2776 15.08852289 40674,6917.843,95.437,540.476,538.939,0.0
53722.0,STARLINK-4700,PAYLOAD,2023-05-27 04:02:18,15.08834206,0.0001159,53.2144,141.8591,121.5568,238.5537,-2.7334e-05,-7.23e-06,0.0,0 STARLINK-4700,1 53722U 22107Y   23147.16827301 -.00000723  00000-0 -27334-4 0  9993,2 53722  53.2144 141.8591 0001159 121.5568 238.5537 15.08834206 40344,6917.898,95.438,540.565,538.961,0.0
53722.0,STARLINK-4700,PAYLOAD,2023-05-27 16:45:24,15.08833294,0.0001065,53.2158,139.4833,87.5451,272.5663,-2.6323e-05,-7.07e-06,0.0,0 STARLINK-4700,1 53722U 22107Y   23147.69819713 -.00000707  00000-0 -26323-4 0  9998,2 53722  53.2158 139.4833 0001065  87.5451 272.5663 15.08833294 40871,6917.901,95.438,540.503,539.029,0.0
53722.0,STARLINK-4700,PAYLOAD,2023-05-28 05:28:29,15.08840121,9.87e-05,53.2154,137.1027,81.6836,278.4268,-0.00010458,-1.952e-05,0.0,0 STARLINK-4700,1 53722U 22107Y   23148.22811706 -.00001952  00000-0 -10458-3 0  9996,2 53722  53.2154 137.1027 0000987  81.6836 278.4268 15.08840121 40953,6917.88,95.438,540.428,539.062,0.0
53722.0,STARLINK-4700,PAYLOAD,2023-05-28 07:03:52,15.08838501,0.0001015,53.2153,136.8061,89.3951,270.7157,-8.0731e-05,-1.572e-05,0.0,0 STARLINK-4700,1 53722U 22107Y   23148.29435722 -.00001572  00000-0 -80731-4 0  9993,2 53722  53.2153 136.8061 0001015  89.3951 270.7157 15.08838501 40515,6917.885,95.438,540.452,539.048,0.0
53722.0,STARLINK-4700,PAYLOAD,2023-05-28 16:36:11,15.08841359,9.78e-05,53.2157,135.0214,100.2378,259.8724,-6.1337e-05,-1.264e-05,0.0,0 STARLINK-4700,1 53722U 22107Y   23148.69179465 -.00001264  00000-0 -61337-4 0  9995,2 53722  53.2157 135.0214 0000978 100.2378 259.8724 15.08841359 41023,6917.876,95.437,540.418,539.065,0.0
53722.0,STARLINK-4700,PAYLOAD,2023-05-29 05:19:16,15.08836029,9.76e-05,53.2158,132.6423,89.736,270.3744,0.00010406,1.369e-05,0.0,0 STARLINK-4700,1 53722U 22107Y   23149.22171525  .00001369  00000-0  10406-3 0  9998,2 53722  53.2158 132.6423 0000976  89.7360 270.3744 15.08836029 41106,6917.893,95.438,540.433,539.082,0.0
53722.0,STARLINK-4700,PAYLOAD,2023-05-29 16:26:58,15.08837399,9.86e-05,53.2159,130.5608,88.6454,271.4652,0.00011214,1.497e-05,0.0,0 STARLINK-4700,1 53722U 22107Y   23149.68539529  .00001497  00000-0  11214-3 0  9990,2 53722  53.2159 130.5608 0000986  88.6454 271.4652 15.08837399 40720,6917.888,95.438,540.435,539.071,0.0
53722.0,STARLINK-4700,PAYLOAD,2023-05-30 08:20:49,15.08841566,0.0001,53.2159,127.5871,89.2091,270.9015,0.00012482,1.699e-05,0.0,0 STARLINK-4700,1 53722U 22107Y   23150.34779327  .00001699  00000-0  12482-3 0  9999,2 53722  53.2159 127.5871 0001000  89.2091 270.9015 15.08841566 41279,6917.876,95.437,540.432,539.049,0.0
53722.0,STARLINK-4700,PAYLOAD,2023-05-31 01:50:04,15.0884038,0.0001027,53.2158,124.3153,92.1963,267.9147,3.1287e-05,2.1e-06,0.0,0 STARLINK-4700,1 53722U 22107Y   23151.07643685  .00000210  00000-0  31287-4 0  9990,2 53722  53.2158 124.3153 0001027  92.1963 267.9147 15.08840380 40933,6917.879,95.438,540.455,539.034,0.0
53722.0,STARLINK-4700,PAYLOAD,2023-05-31 05:00:50,15.08842417,0.0001025,53.2158,123.7204,92.6451,267.4659,4.7642e-05,4.71e-06,0.0,0 STARLINK-4700,1 53722U 22107Y   23151.20891513  .00000471  00000-0  47642-4 0  9991,2 53722  53.2158 123.7204 0001025  92.6451 267.4659 15.08842417 41407,6917.873,95.437,540.447,539.029,0.0
53722.0,STARLINK-4700,PAYLOAD,2023-05-31 20:54:42,15.0883568,0.0001037,53.2158,120.7472,91.9898,268.1213,-2.3569e-05,-6.63e-06,0.0,0 STARLINK-4700,1 53722U 22107Y   23151.87132152 -.00000663  00000-0 -23569-4 0  9998,2 53722  53.2158 120.7472 0001037  91.9898 268.1213 15.08835680 41500,6917.894,95.438,540.476,539.041,0.0
53722.0,STARLINK-4700,PAYLOAD,2023-06-01 04:51:37,15.08842065,0.0001012,53.2159,119.2603,90.7648,269.346,1.7026e-05,-1.7e-07,0.0,0 STARLINK-4700,1 53722U 22107Y   23152.20251641 -.00000017  00000-0  17026-4 0  9994,2 53722  53.2159 119.2603 0001012  90.7648 269.3460 15.08842065 41550,6917.874,95.437,540.439,539.039,0.0
53722.0,STARLINK-4700,PAYLOAD,2023-06-02 03:07:02,15.08831569,0.0001028,53.2159,115.099,95.9618,264.1491,-2.294e-05,-6.53e-06,0.0,0 STARLINK-4700,1 53722U 22107Y   23153.12988709 -.00000653  00000-0 -22940-4 0  9996,2 53722  53.2159 115.0990 0001028  95.9618 264.1491 15.08831569 41244,6917.906,95.438,540.482,539.06,0.0
53722.0,STARLINK-4700,PAYLOAD,2023-06-02 04:42:25,15.08831546,0.0001029,53.2159,114.8017,95.8021,264.3088,-2.3391e-05,-6.6e-06,0.0,0 STARLINK-4700,1 53722U 22107Y   23153.19612737 -.00000660  00000-0 -23391-4 0  9997,2 53722  53.2159 114.8017 0001029  95.8021 264.3088 15.08831546 41709,6917.906,95.438,540.483,539.059,0.0
53722.0,STARLINK-4700,PAYLOAD,2023-06-02 20:36:16,15.08835677,0.0001058,53.2162,111.8278,100.0402,260.0709,4.7852e-05,4.74e-06,0.0,0 STARLINK-4700,1 53722U 22107Y   23153.85852535  .00000474  00000-0  47852-4 0  9991,2 53722  53.2162 111.8278 0001058 100.0402 260.0709 15.08835677 41806,6917.894,95.438,540.491,539.027,0.0
53722.0,STARLINK-4700,PAYLOAD,2023-06-03 02:57:49,15.08836317,0.0001046,53.2162,110.6382,98.3478,261.7633,4.665e-05,4.55e-06,0.0,0 STARLINK-4700,1 53722U 22107Y   23154.12348586  .00000455  00000-0  46650-4 0  9992,2 53722  53.2162 110.6382 0001046  98.3478 261.7633 15.08836317 41398,6917.892,95.438,540.48,539.033,0.0
53722.0,STARLINK-4700,PAYLOAD,2023-06-03 04:33:12,15.08838153,0.0001043,53.2162,110.3408,97.3467,262.7644,6.0642e-05,6.77e-06,0.0,0 STARLINK-4700,1 53722U 22107Y   23154.18972461  .00000677  00000-0  60642-4 0  9996,2 53722  53.2162 110.3408 0001043  97.3467 262.7644 15.08838153 41852,6917.886,95.438,540.473,539.029,0.0
53722.0,STARLINK-4700,PAYLOAD,2023-06-04 04:23:59,15.08840237,0.0001107,53.2168,105.8803,90.5384,269.5735,9.7613e-05,1.266e-05,0.0,0 STARLINK-4700,1 53722U 22107Y   23155.18332500  .00001266  00000-0  97613-4 0  9994,2 53722  53.2168 105.8803 0001107  90.5384 269.5735 15.08840237 41559,6917.88,95.438,540.51,538.979,0.0
53722.0,STARLINK-4700,PAYLOAD,2023-06-04 20:17:50,15.08839037,0.0001288,53.2171,102.9067,78.7553,281.3584,3.5755e-05,2.81e-06,0.0,0 STARLINK-4700,1 53722U 22107Y   23155.84572910  .00000281  00000-0  35755-4 0  9993,2 53722  53.2171 102.9067 0001288  78.7553 281.3584 15.08839037 42101,6917.883,95.438,540.639,538.857,0.0
53722.0,STARLINK-4700,PAYLOAD,2023-06-05 05:50:09,15.08841592,0.0001303,53.2168,101.1223,76.4366,283.6771,5.2139e-05,5.42e-06,0.0,0 STARLINK-4700,1 53722U 22107Y   23156.24316680  .00000542  00000-0  52139-4 0  9993,2 53722  53.2168 101.1223 0001303  76.4366 283.6771 15.08841592 41715,6917.876,95.437,540.642,538.839,0.0
53722.0,STARLINK-4700,PAYLOAD,2023-06-05 13:47:05,15.08843035,0.0001277,53.2173,99.6362,83.7263,276.3875,5.3631e-05,5.66e-06,0.0,0 STARLINK-4700,1 53722U 22107Y   23156.57436518  .00000566  00000-0  53631-4 0  9996,2 53722  53.2173  99.6362 0001277  83.7263 276.3875 15.08843035 42217,6917.871,95.437,540.62,538.853,0.0
53722.0,STARLINK-4700,PAYLOAD,2023-06-05 20:08:37,15.08843157,0.0001283,53.217,98.4463,88.005,272.1089,4.4536e-05,4.21e-06,0.0,0 STARLINK-4700,1 53722U 22107Y   23156.83932486  .00000421  00000-0  44536-4 0  9994,2 53722  53.2170  98.4463 0001283  88.0050 272.1089 15.08843157 42252,6917.871,95.437,540.623,538.848,0.0
53722.0,STARLINK-4700,PAYLOAD,2023-06-06 05:40:56,15.08846761,0.0001262,53.2165,96.6611,94.4053,265.7083,7.2196e-05,8.62e-06,0.0,0 STARLINK-4700,1 53722U 22107Y   23157.23676020  .00000862  00000-0  72196-4 0  9990,2 53722  53.2165  96.6611 0001262  94.4053 265.7083 15.08846761 42315,6917.86,95.437,540.598,538.852,0.0
53722.0,STARLINK-4700,PAYLOAD,2023-06-06 19:59:25,15.08837195,0.0001216,53.216,93.9842,97.2256,262.8875,-1.8959e-06,-3.18e-06,0.0,0 STARLINK-4700,1 53722U 22107Y   23157.83292826 -.00000318  00000-0 -18959-5 0  9990,2 53722  53.2160  93.9842 0001216  97.2256 262.8875 15.08837195 42409,6917.889,95.438,540.595,538.913,0.0
53722.0,STARLINK-4700,PAYLOAD,2023-06-06 23:10:11,15.08836325,0.0001214,53.2161,93.3894,97.537,262.576,-1.1875e-05,-4.77e-06,0.0,0 STARLINK-4700,1 53722U 22107Y   23157.96540927 -.00000477  00000-0 -11875-4 0  9997,2 53722  53.2161  93.3894 0001214  97.5370 262.5760 15.08836325 41974,6917.892,95.438,540.596,538.917,0.0
53722.0,STARLINK-4700,PAYLOAD,2023-06-07 05:31:43,15.0884974,0.0001279,53.2161,92.1999,96.5787,263.535,-0.00011182,-2.068e-05,0.0,0 STARLINK-4700,1 53722U 22107Y   23158.23036342 -.00002068  00000-0 -11182-3 0  9997,2 53722  53.2161  92.1999 0001279  96.5787 263.5350 15.08849740 42016,6917.851,95.437,540.6,538.831,0.0
